{
  "type": "FeatureCollection",
  "features": [
    {
      "type": "Feature",
      "properties": {
        "norad_id": 66856,
        "name": "STARLINK-36072",
        "group": "last-30-days",
        "lat": -33.736379595379944,
        "lon": 50.412223455245254,
        "alt_km": 332.92678947482545,
        "timestamp": "2025-12-16T23:36:34.924774+00:00",
        "meta_object_name": "STARLINK-36072",
        "meta_object_id": "2025-281J",
        "meta_epoch": "2025-12-16T06:00:02.999808",
        "meta_mean_motion": 15.81827205,
        "meta_eccentricity": 0.00016065,
        "meta_inclination": 43.0005,
        "meta_ra_of_asc_node": 100.6831,
        "meta_arg_of_pericenter": 273.4449,
        "meta_mean_anomaly": 171.5899,
        "meta_ephemeris_type": 0,
        "meta_classification_type": "U",
        "meta_norad_cat_id": 66856,
        "meta_element_set_no": 999,
        "meta_rev_at_epoch": 196,
        "meta_bstar": -0.0071798052,
        "meta_mean_motion_dot": -0.013165,
        "meta_mean_motion_ddot": 0,
        "tle_line1": "1 66856U 25281J   25350.25003472 -.01316500  00000+0 -71798-2 0  9998",
        "tle_line2": "2 66856  43.0005 100.6831 0001606 273.4449 171.5899 15.81827205  1965"
      },
      "geometry": {
        "type": "Point",
        "coordinates": [
          50.412223455245254,
          -33.736379595379944
        ]
      }
    },
    {
      "type": "Feature",
      "properties": {
        "norad_id": 66857,
        "name": "STARLINK-36083",
        "group": "last-30-days",
        "lat": -32.62181403584352,
        "lon": 52.80376830344426,
        "alt_km": 333.16710618618254,
        "timestamp": "2025-12-16T23:36:34.924787+00:00",
        "meta_object_name": "STARLINK-36083",
        "meta_object_id": "2025-281K",
        "meta_epoch": "2025-12-16T06:00:02.999808",
        "meta_mean_motion": 15.81792758,
        "meta_eccentricity": 0.00013738,
        "meta_inclination": 43.0002,
        "meta_ra_of_asc_node": 100.6773,
        "meta_arg_of_pericenter": 275.8371,
        "meta_mean_anomaly": 171.6202,
        "meta_ephemeris_type": 0,
        "meta_classification_type": "U",
        "meta_norad_cat_id": 66857,
        "meta_element_set_no": 999,
        "meta_rev_at_epoch": 196,
        "meta_bstar": -0.0072763058,
        "meta_mean_motion_dot": -0.01329927,
        "meta_mean_motion_ddot": 0,
        "tle_line1": "1 66857U 25281K   25350.25003472 -.01329927  00000+0 -72763-2 0  9999",
        "tle_line2": "2 66857  43.0002 100.6773 0001373 275.8371 171.6202 15.81792758  1962"
      },
      "geometry": {
        "type": "Point",
        "coordinates": [
          52.80376830344426,
          -32.62181403584352
        ]
      }
    },
    {
      "type": "Feature",
      "properties": {
        "norad_id": 66858,
        "name": "STARLINK-35118",
        "group": "last-30-days",
        "lat": -31.43221185056318,
        "lon": 55.19527257084272,
        "alt_km": 333.20951520755807,
        "timestamp": "2025-12-16T23:36:34.924798+00:00",
        "meta_object_name": "STARLINK-35118",
        "meta_object_id": "2025-281L",
        "meta_epoch": "2025-12-16T06:00:02.999808",
        "meta_mean_motion": 15.81747283,
        "meta_eccentricity": 0.00015526,
        "meta_inclination": 43.0005,
        "meta_ra_of_asc_node": 100.6705,
        "meta_arg_of_pericenter": 275.0428,
        "meta_mean_anomaly": 174.9209,
        "meta_ephemeris_type": 0,
        "meta_classification_type": "U",
        "meta_norad_cat_id": 66858,
        "meta_element_set_no": 999,
        "meta_rev_at_epoch": 175,
        "meta_bstar": -0.0073705469,
        "meta_mean_motion_dot": -0.01368221,
        "meta_mean_motion_ddot": 0,
        "tle_line1": "1 66858U 25281L   25350.25003472 -.01368221  00000+0 -73705-2 0  9997",
        "tle_line2": "2 66858  43.0005 100.6705 0001552 275.0428 174.9209 15.81747283  1758"
      },
      "geometry": {
        "type": "Point",
        "coordinates": [
          55.19527257084272,
          -31.43221185056318
        ]
      }
    },
    {
      "type": "Feature",
      "properties": {
        "norad_id": 66859,
        "name": "STARLINK-35646",
        "group": "last-30-days",
        "lat": -30.124661022058728,
        "lon": 57.66138922785472,
        "alt_km": 333.3727122829987,
        "timestamp": "2025-12-16T23:36:34.924808+00:00",
        "meta_object_name": "STARLINK-35646",
        "meta_object_id": "2025-281M",
        "meta_epoch": "2025-12-16T06:00:02.999808",
        "meta_mean_motion": 15.81677654,
        "meta_eccentricity": 0.00014886,
        "meta_inclination": 43.0004,
        "meta_ra_of_asc_node": 100.6634,
        "meta_arg_of_pericenter": 277.8959,
        "meta_mean_anomaly": 174.7603,
        "meta_ephemeris_type": 0,
        "meta_classification_type": "U",
        "meta_norad_cat_id": 66859,
        "meta_element_set_no": 999,
        "meta_rev_at_epoch": 196,
        "meta_bstar": -0.0074210237,
        "meta_mean_motion_dot": -0.01372517,
        "meta_mean_motion_ddot": 0,
        "tle_line1": "1 66859U 25281M   25350.25003472 -.01372517  00000+0 -74210-2 0  9993",
        "tle_line2": "2 66859  43.0004 100.6634 0001488 277.8959 174.7603 15.81677654  1969"
      },
      "geometry": {
        "type": "Point",
        "coordinates": [
          57.66138922785472,
          -30.124661022058728
        ]
      }
    },
    {
      "type": "Feature",
      "properties": {
        "norad_id": 66860,
        "name": "STARLINK-35987",
        "group": "last-30-days",
        "lat": -22.947268966862964,
        "lon": 69.11950018025925,
        "alt_km": 334.51280761551425,
        "timestamp": "2025-12-16T23:36:34.924819+00:00",
        "meta_object_name": "STARLINK-35987",
        "meta_object_id": "2025-281N",
        "meta_epoch": "2025-12-16T06:00:02.999808",
        "meta_mean_motion": 15.81312638,
        "meta_eccentricity": 0.00015739,
        "meta_inclination": 43.0003,
        "meta_ra_of_asc_node": 100.6292,
        "meta_arg_of_pericenter": 266.2762,
        "meta_mean_anomaly": 199.9845,
        "meta_ephemeris_type": 0,
        "meta_classification_type": "U",
        "meta_norad_cat_id": 66860,
        "meta_element_set_no": 999,
        "meta_rev_at_epoch": 196,
        "meta_bstar": -0.0078433382,
        "meta_mean_motion_dot": -0.0142003,
        "meta_mean_motion_ddot": 0,
        "tle_line1": "1 66860U 25281N   25350.25003472 -.01420030  00000+0 -78433-2 0  9990",
        "tle_line2": "2 66860  43.0003 100.6292 0001573 266.2762 199.9845 15.81312638  1964"
      },
      "geometry": {
        "type": "Point",
        "coordinates": [
          69.11950018025925,
          -22.947268966862964
        ]
      }
    },
    {
      "type": "Feature",
      "properties": {
        "norad_id": 66861,
        "name": "STARLINK-35991",
        "group": "last-30-days",
        "lat": -27.366742529357232,
        "lon": 62.41950338333175,
        "alt_km": 333.93395241214785,
        "timestamp": "2025-12-16T23:36:34.924829+00:00",
        "meta_object_name": "STARLINK-35991",
        "meta_object_id": "2025-281P",
        "meta_epoch": "2025-12-16T06:00:02.999808",
        "meta_mean_motion": 15.81536406,
        "meta_eccentricity": 0.0001381,
        "meta_inclination": 43.0005,
        "meta_ra_of_asc_node": 100.6504,
        "meta_arg_of_pericenter": 271.5281,
        "meta_mean_anomaly": 186.564,
        "meta_ephemeris_type": 0,
        "meta_classification_type": "U",
        "meta_norad_cat_id": 66861,
        "meta_element_set_no": 999,
        "meta_rev_at_epoch": 196,
        "meta_bstar": -0.0076060863,
        "meta_mean_motion_dot": -0.01394629,
        "meta_mean_motion_ddot": 0,
        "tle_line1": "1 66861U 25281P   25350.25003472 -.01394629  00000+0 -76061-2 0  9990",
        "tle_line2": "2 66861  43.0005 100.6504 0001381 271.5281 186.5640 15.81536406  1961"
      },
      "geometry": {
        "type": "Point",
        "coordinates": [
          62.41950338333175,
          -27.366742529357232
        ]
      }
    },
    {
      "type": "Feature",
      "properties": {
        "norad_id": 66862,
        "name": "STARLINK-35974",
        "group": "last-30-days",
        "lat": -28.72171199906198,
        "lon": 60.14967956469157,
        "alt_km": 333.64202290442245,
        "timestamp": "2025-12-16T23:36:34.924839+00:00",
        "meta_object_name": "STARLINK-35974",
        "meta_object_id": "2025-281Q",
        "meta_epoch": "2025-12-16T06:00:02.999808",
        "meta_mean_motion": 15.81599391,
        "meta_eccentricity": 0.00015942,
        "meta_inclination": 43.0005,
        "meta_ra_of_asc_node": 100.6569,
        "meta_arg_of_pericenter": 271.7232,
        "meta_mean_anomaly": 183.7547,
        "meta_ephemeris_type": 0,
        "meta_classification_type": "U",
        "meta_norad_cat_id": 66862,
        "meta_element_set_no": 999,
        "meta_rev_at_epoch": 186,
        "meta_bstar": -0.0075270045,
        "meta_mean_motion_dot": -0.0138549,
        "meta_mean_motion_ddot": 0,
        "tle_line1": "1 66862U 25281Q   25350.25003472 -.01385490  00000+0 -75270-2 0  9998",
        "tle_line2": "2 66862  43.0005 100.6569 0001594 271.7232 183.7547 15.81599391  1863"
      },
      "geometry": {
        "type": "Point",
        "coordinates": [
          60.14967956469157,
          -28.72171199906198
        ]
      }
    }
  ]
}